{
  "type": "FeatureCollection",
  "features": [
    {
      "type": "Feature",
      "properties": {
        "norad_id": 39160,
        "name": "VNREDSAT 1",
        "group": "resource",
        "lat": -6.016702397653444,
        "lon": -145.10376142324304,
        "alt_km": 681.3690340090734,
        "timestamp": "2025-12-06T05:40:08.893279+00:00",
        "meta_object_name": "VNREDSAT 1",
        "meta_object_id": "2013-021B",
        "meta_epoch": "2025-12-05T07:30:43.138656",
        "meta_mean_motion": 14.6490569,
        "meta_eccentricity": 0.00013418,
        "meta_inclination": 97.9384,
        "meta_ra_of_asc_node": 34.848,
        "meta_arg_of_pericenter": 83.5864,
        "meta_mean_anomaly": 276.5492,
        "meta_ephemeris_type": 0,
        "meta_classification_type": "U",
        "meta_norad_cat_id": 39160,
        "meta_element_set_no": 999,
        "meta_rev_at_epoch": 67190,
        "meta_bstar": 0.00026487956,
        "meta_mean_motion_dot": 1.371e-05,
        "meta_mean_motion_ddot": 0,
        "tle_line1": "1 39160U 13021B   25339.31299929  .00001371  00000+0  26488-3 0  9994",
        "tle_line2": "2 39160  97.9384  34.8480 0001341  83.5864 276.5492 14.64905690671903"
      },
      "geometry": {
        "type": "Point",
        "coordinates": [
          -145.10376142324304,
          -6.016702397653444
        ]
      }
    },
    {
      "type": "Feature",
      "properties": {
        "norad_id": 39227,
        "name": "ARIRANG-5 (KOMPSAT-5)",
        "group": "resource",
        "lat": 58.001577866538476,
        "lon": 152.26924207548146,
        "alt_km": 544.6680269136505,
        "timestamp": "2025-12-06T05:40:08.893290+00:00",
        "meta_object_name": "ARIRANG-5 (KOMPSAT-5)",
        "meta_object_id": "2013-042A",
        "meta_epoch": "2025-12-05T07:03:43.111008",
        "meta_mean_motion": 15.04514127,
        "meta_eccentricity": 0.00041179,
        "meta_inclination": 97.615,
        "meta_ra_of_asc_node": 163.7048,
        "meta_arg_of_pericenter": 77.7016,
        "meta_mean_anomaly": 282.4671,
        "meta_ephemeris_type": 0,
        "meta_classification_type": "U",
        "meta_norad_cat_id": 39227,
        "meta_element_set_no": 999,
        "meta_rev_at_epoch": 67470,
        "meta_bstar": 0.0002165701,
        "meta_mean_motion_dot": 2.973e-05,
        "meta_mean_motion_ddot": 0,
        "tle_line1": "1 39227U 13042A   25339.29424897  .00002973  00000+0  21657-3 0  9994",
        "tle_line2": "2 39227  97.6150 163.7048 0004117  77.7016 282.4671 15.04514127674707"
      },
      "geometry": {
        "type": "Point",
        "coordinates": [
          152.26924207548146,
          58.001577866538476
        ]
      }
    },
    {
      "type": "Feature",
      "properties": {
        "norad_id": 39418,
        "name": "SKYSAT-A",
        "group": "resource",
        "lat": -82.02930329347521,
        "lon": 142.2518948095206,
        "alt_km": 524.8737280816968,
        "timestamp": "2025-12-06T05:40:08.893300+00:00",
        "meta_object_name": "SKYSAT-A",
        "meta_object_id": "2013-066C",
        "meta_epoch": "2025-12-05T03:04:09.108480",
        "meta_mean_motion": 15.1151777,
        "meta_eccentricity": 0.00204042,
        "meta_inclination": 97.4119,
        "meta_ra_of_asc_node": 29.5682,
        "meta_arg_of_pericenter": 264.6839,
        "meta_mean_anomaly": 95.2063,
        "meta_ephemeris_type": 0,
        "meta_classification_type": "U",
        "meta_norad_cat_id": 39418,
        "meta_element_set_no": 999,
        "meta_rev_at_epoch": 65915,
        "meta_bstar": 0.00042729792,
        "meta_mean_motion_dot": 7.213e-05,
        "meta_mean_motion_ddot": 0,
        "tle_line1": "1 39418U 13066C   25339.12788320  .00007213  00000+0  42730-3 0  9995",
        "tle_line2": "2 39418  97.4119  29.5682 0020404 264.6839  95.2063 15.11517770659154"
      },
      "geometry": {
        "type": "Point",
        "coordinates": [
          142.2518948095206,
          -82.02930329347521
        ]
      }
    },
    {
      "type": "Feature",
      "properties": {
        "norad_id": 39419,
        "name": "DUBAISAT-2",
        "group": "resource",
        "lat": 53.932816292940856,
        "lon": 161.1858635142248,
        "alt_km": 542.4206484073866,
        "timestamp": "2025-12-06T05:40:08.893311+00:00",
        "meta_object_name": "DUBAISAT-2",
        "meta_object_id": "2013-066D",
        "meta_epoch": "2025-12-05T06:49:26.707296",
        "meta_mean_motion": 15.0824343,
        "meta_eccentricity": 0.00112516,
        "meta_inclination": 97.4437,
        "meta_ra_of_asc_node": 329.9224,
        "meta_arg_of_pericenter": 348.7262,
        "meta_mean_anomaly": 11.3713,
        "meta_ephemeris_type": 0,
        "meta_classification_type": "U",
        "meta_norad_cat_id": 39419,
        "meta_element_set_no": 999,
        "meta_rev_at_epoch": 65714,
        "meta_bstar": 0.0005318026,
        "meta_mean_motion_dot": 8.19e-05,
        "meta_mean_motion_ddot": 0,
        "tle_line1": "1 39419U 13066D   25339.28433689  .00008190  00000+0  53180-3 0  9994",
        "tle_line2": "2 39419  97.4437 329.9224 0011251 348.7262  11.3713 15.08243430657144"
      },
      "geometry": {
        "type": "Point",
        "coordinates": [
          161.1858635142248,
          53.932816292940856
        ]
      }
    },
    {
      "type": "Feature",
      "properties": {
        "norad_id": 39574,
        "name": "GPM-CORE",
        "group": "resource",
        "lat": 63.08916646590152,
        "lon": -12.510790189564236,
        "alt_km": 430.2967310546983,
        "timestamp": "2025-12-06T05:40:08.893321+00:00",
        "meta_object_name": "GPM-CORE",
        "meta_object_id": "2014-009C",
        "meta_epoch": "2025-12-05T05:56:18.813408",
        "meta_mean_motion": 15.45273764,
        "meta_eccentricity": 0.00105365,
        "meta_inclination": 64.9749,
        "meta_ra_of_asc_node": 237.7897,
        "meta_arg_of_pericenter": 269.2243,
        "meta_mean_anomaly": 90.769,
        "meta_ephemeris_type": 0,
        "meta_classification_type": "U",
        "meta_norad_cat_id": 39574,
        "meta_element_set_no": 999,
        "meta_rev_at_epoch": 66785,
        "meta_bstar": 0.00051753336,
        "meta_mean_motion_dot": 0.00024653,
        "meta_mean_motion_ddot": 0,
        "tle_line1": "1 39574U 14009C   25339.24743997  .00024653  00000+0  51753-3 0  9992",
        "tle_line2": "2 39574  64.9749 237.7897 0010536 269.2243  90.7690 15.45273764667852"
      },
      "geometry": {
        "type": "Point",
        "coordinates": [
          -12.510790189564236,
          63.08916646590152
        ]
      }
    },
    {
      "type": "Feature",
      "properties": {
        "norad_id": 39634,
        "name": "SENTINEL-1A",
        "group": "resource",
        "lat": -0.558710617584043,
        "lon": 165.4933383095896,
        "alt_km": 698.8596470923885,
        "timestamp": "2025-12-06T05:40:08.893331+00:00",
        "meta_object_name": "SENTINEL-1A",
        "meta_object_id": "2014-016A",
        "meta_epoch": "2025-12-05T07:27:02.511072",
        "meta_mean_motion": 14.59202279,
        "meta_eccentricity": 0.00012375,
        "meta_inclination": 98.1804,
        "meta_ra_of_asc_node": 344.6616,
        "meta_arg_of_pericenter": 89.84,
        "meta_mean_anomaly": 270.2942,
        "meta_ephemeris_type": 0,
        "meta_classification_type": "U",
        "meta_norad_cat_id": 39634,
        "meta_element_set_no": 999,
        "meta_rev_at_epoch": 62174,
        "meta_bstar": 6.0487101e-05,
        "meta_mean_motion_dot": 2.39e-06,
        "meta_mean_motion_ddot": 0,
        "tle_line1": "1 39634U 14016A   25339.31044573  .00000239  00000+0  60487-4 0  9998",
        "tle_line2": "2 39634  98.1804 344.6616 0001237  89.8400 270.2942 14.59202279621746"
      },
      "geometry": {
        "type": "Point",
        "coordinates": [
          165.4933383095896,
          -0.558710617584043
        ]
      }
    },
    {
      "type": "Feature",
      "properties": {
        "norad_id": 39731,
        "name": "KAZEOSAT 1",
        "group": "resource",
        "lat": -15.554448099176502,
        "lon": -130.05196979637157,
        "alt_km": 756.5684971860219,
        "timestamp": "2025-12-06T05:40:08.893342+00:00",
        "meta_object_name": "KAZEOSAT 1",
        "meta_object_id": "2014-024A",
        "meta_epoch": "2025-12-05T07:06:59.837760",
        "meta_mean_motion": 14.42055939,
        "meta_eccentricity": 0.00010593,
        "meta_inclination": 98.3443,
        "meta_ra_of_asc_node": 51.3708,
        "meta_arg_of_pericenter": 99.5038,
        "meta_mean_anomaly": 260.6272,
        "meta_ephemeris_type": 0,
        "meta_classification_type": "U",
        "meta_norad_cat_id": 39731,
        "meta_element_set_no": 999,
        "meta_rev_at_epoch": 61061,
        "meta_bstar": 0.00016429719,
        "meta_mean_motion_dot": 4.97e-06,
        "meta_mean_motion_ddot": 0,
        "tle_line1": "1 39731U 14024A   25339.29652590  .00000497  00000+0  16430-3 0  9990",
        "tle_line2": "2 39731  98.3443  51.3708 0001059  99.5038 260.6272 14.42055939610610"
      },
      "geometry": {
        "type": "Point",
        "coordinates": [
          -130.05196979637157,
          -15.554448099176502
        ]
      }
    }
  ]
}